[{"OBJECT_NAME":"STARLINK-30708","OBJECT_ID":"2023-148K","EPOCH":"2026-03-09T04:09:35.369856","MEAN_MOTION":15.30191809,"ECCENTRICITY":0.00012271,"INCLINATION":53.1613,"RA_OF_ASC_NODE":26.656,"ARG_OF_PERICENTER":82.5112,"MEAN_ANOMALY":277.6028,"EPHEMERIS_TYPE":0,"CLASSIFICATION_TYPE":"U","NORAD_CAT_ID":57944,"ELEMENT_SET_NO":999,"REV_AT_EPOCH":13834,"BSTAR":-4.6253536e-5,"MEAN_MOTION_DOT":-1.728e-5,"MEAN_MOTION_DDOT":0},{"OBJECT_NAME":"TIANMU-1 19","OBJECT_ID":"2023-208A","EPOCH":"2026-03-09T22:13:36.801696","MEAN_MOTION":15.2984143,"ECCENTRICITY":0.00039292,"INCLINATION":97.4383,"RA_OF_ASC_NODE":184.9132,"ARG_OF_PERICENTER":316.2611,"MEAN_ANOMALY":43.8317,"EPHEMERIS_TYPE":0,"CLASSIFICATION_TYPE":"U","NORAD_CAT_ID":58660,"ELEMENT_SET_NO":999,"REV_AT_EPOCH":12214,"BSTAR":0.00040995676,"MEAN_MOTION_DOT":0.00011779,"MEAN_MOTION_DDOT":0}]
